start=new Date('2022-12-27T00:00:00.000Z').valueOf();
sats=[{"EPHEMERIS_TYPE":"0","RCS_SIZE":"LARGE","LAUNCH_DATE":"2020-11-25","PERIAPSIS":"545.882","GP_ID":"221522698","COUNTRY_CODE":"US","SITE":"AFETR","RA_OF_ASC_NODE":"149.4294","ELEMENT_SET_NO":"999","BSTAR":"0.00008542800000","INCLINATION":"53.0548","DECAY_DATE":null,"TLE_LINE2":"2 47165  53.0548 149.4294 0001895  60.1348 299.9829 15.06406321115641","ECCENTRICITY":"0.00018950","REF_FRAME":"TEME","OBJECT_ID":"2020-088AV","FILE":"3723236","TLE_LINE1":"1 47165U 20088AV  22360.69685283  .00000991  00000-0  85428-4 0  9991","MEAN_ANOMALY":"299.9829","PERIOD":"95.592","OBJECT_TYPE":"PAYLOAD","EPOCH":"2022-12-26T16:43:28.084512","APOAPSIS":"548.507","ARG_OF_PERICENTER":"60.1348","MEAN_MOTION_DDOT":"0.0000000000000","OBJECT_NAME":"STARLINK-1880","CLASSIFICATION_TYPE":"U","REV_AT_EPOCH":"11564","SEMIMAJOR_AXIS":"6925.329","MEAN_ELEMENT_THEORY":"SGP4","MEAN_MOTION_DOT":"0.00000991","TIME_SYSTEM":"UTC","CENTER_NAME":"EARTH","MEAN_MOTION":"15.06406321","NORAD_CAT_ID":"47165"},{"GP_ID":"221523450","COUNTRY_CODE":"US","PERIAPSIS":"376.533","LAUNCH_DATE":"2020-11-25","EPHEMERIS_TYPE":"0","RCS_SIZE":"LARGE","RA_OF_ASC_NODE":"355.9352","BSTAR":"0.00076574000000","ELEMENT_SET_NO":"999","SITE":"AFETR","OBJECT_ID":"2020-088AW","REF_FRAME":"TEME","ECCENTRICITY":"0.00027130","TLE_LINE2":"2 47166  53.0440 355.9352 0002713  80.8786 279.2534 15.63219671117815","TLE_LINE1":"1 47166U 20088AW  22360.69135091  .00071504  00000-0  76574-3 0  9998","MEAN_ANOMALY":"279.2534","FILE":"3723236","INCLINATION":"53.0440","DECAY_DATE":null,"OBJECT_TYPE":"PAYLOAD","PERIOD":"92.118","APOAPSIS":"380.199","MEAN_MOTION_DDOT":"0.0000000000000","ARG_OF_PERICENTER":"80.8786","EPOCH":"2022-12-26T16:35:32.718624","REV_AT_EPOCH":"11781","CLASSIFICATION_TYPE":"U","OBJECT_NAME":"STARLINK-1881","SEMIMAJOR_AXIS":"6756.501","MEAN_ELEMENT_THEORY":"SGP4","NORAD_CAT_ID":"47166","MEAN_MOTION":"15.63219671","MEAN_MOTION_DOT":"0.00071504","TIME_SYSTEM":"UTC","CENTER_NAME":"EARTH"},{"EPOCH":"2022-12-26T19:33:18.967968","MEAN_MOTION_DDOT":"0.0000000000000","ARG_OF_PERICENTER":"58.9300","APOAPSIS":"548.260","OBJECT_NAME":"STARLINK-1884","REV_AT_EPOCH":"11566","CLASSIFICATION_TYPE":"U","MEAN_ELEMENT_THEORY":"SGP4","SEMIMAJOR_AXIS":"6925.331","CENTER_NAME":"EARTH","TIME_SYSTEM":"UTC","MEAN_MOTION_DOT":"0.00001030","NORAD_CAT_ID":"47167","MEAN_MOTION":"15.06405762","PERIAPSIS":"546.132","LAUNCH_DATE":"2020-11-25","EPHEMERIS_TYPE":"0","RCS_SIZE":"LARGE","COUNTRY_CODE":"US","GP_ID":"221524200","SITE":"AFETR","ELEMENT_SET_NO":"999","BSTAR":"0.00008805300000","RA_OF_ASC_NODE":"148.8897","DECAY_DATE":null,"INCLINATION":"53.0542","TLE_LINE1":"1 47167U 20088AX  22360.81480287  .00001030  00000-0  88053-4 0  9996","FILE":"3723236","MEAN_ANOMALY":"301.1839","OBJECT_ID":"2020-088AX","REF_FRAME":"TEME","TLE_LINE2":"2 47167  53.0542 148.8897 0001536  58.9300 301.1839 15.06405762115661","ECCENTRICITY":"0.00015360","PERIOD":"95.592","OBJECT_TYPE":"PAYLOAD"},{"APOAPSIS":"548.309","MEAN_MOTION_DDOT":"0.0000000000000","ARG_OF_PERICENTER":"62.6709","EPOCH":"2022-12-26T19:12:05.627232","REV_AT_EPOCH":"11566","CLASSIFICATION_TYPE":"U","OBJECT_NAME":"STARLINK-1887","MEAN_ELEMENT_THEORY":"SGP4","SEMIMAJOR_AXIS":"6925.374","NORAD_CAT_ID":"47170","MEAN_MOTION":"15.06391710","MEAN_MOTION_DOT":"0.00001102","TIME_SYSTEM":"UTC","CENTER_NAME":"EARTH","GP_ID":"221522948","COUNTRY_CODE":"US","LAUNCH_DATE":"2020-11-25","PERIAPSIS":"546.169","EPHEMERIS_TYPE":"0","RCS_SIZE":"LARGE","RA_OF_ASC_NODE":"148.9706","ELEMENT_SET_NO":"999","BSTAR":"0.00009290100000","SITE":"AFETR","OBJECT_ID":"2020-088BA","REF_FRAME":"TEME","TLE_LINE2":"2 47170  53.0545 148.9706 0001545  62.6709 297.4438 15.06391710115662","ECCENTRICITY":"0.00015450","TLE_LINE1":"1 47170U 20088BA  22360.80006513  .00001102  00000-0  92901-4 0  9992","FILE":"3723236","MEAN_ANOMALY":"297.4438","INCLINATION":"53.0545","DECAY_DATE":null,"OBJECT_TYPE":"PAYLOAD","PERIOD":"95.593"},{"APOAPSIS":"548.367","MEAN_MOTION_DDOT":"0.0000000000000","ARG_OF_PERICENTER":"60.4946","EPOCH":"2022-12-26T19:39:57.589056","REV_AT_EPOCH":"11580","CLASSIFICATION_TYPE":"U","OBJECT_NAME":"STARLINK-1888","SEMIMAJOR_AXIS":"6925.370","MEAN_ELEMENT_THEORY":"SGP4","NORAD_CAT_ID":"47171","MEAN_MOTION":"15.06392985","MEAN_MOTION_DOT":"-0.00000600","TIME_SYSTEM":"UTC","CENTER_NAME":"EARTH","GP_ID":"221523198","COUNTRY_CODE":"US","PERIAPSIS":"546.103","LAUNCH_DATE":"2020-11-25","EPHEMERIS_TYPE":"0","RCS_SIZE":"LARGE","RA_OF_ASC_NODE":"138.8786","ELEMENT_SET_NO":"999","BSTAR":"-0.00002135400000","SITE":"AFETR","REF_FRAME":"TEME","OBJECT_ID":"2020-088BB","TLE_LINE2":"2 47171  53.0548 138.8786 0001635  60.4946 299.6206 15.06392985115809","ECCENTRICITY":"0.00016350","TLE_LINE1":"1 47171U 20088BB  22360.81941654 -.00000600  00000-0 -21354-4 0  9996","FILE":"3723236","MEAN_ANOMALY":"299.6206","INCLINATION":"53.0548","DECAY_DATE":null,"OBJECT_TYPE":"PAYLOAD","PERIOD":"95.593"},{"RA_OF_ASC_NODE":"148.9299","ELEMENT_SET_NO":"999","BSTAR":"0.00000016595000","SITE":"AFETR","GP_ID":"221523950","COUNTRY_CODE":"US","EPHEMERIS_TYPE":"0","RCS_SIZE":"LARGE","PERIAPSIS":"546.077","LAUNCH_DATE":"2020-11-25","OBJECT_TYPE":"PAYLOAD","PERIOD":"95.592","ECCENTRICITY":"0.00016060","TLE_LINE2":"2 47173  53.0526 148.9299 0001606  79.6348 280.4822 15.06408102115669","REF_FRAME":"TEME","OBJECT_ID":"2020-088BD","TLE_LINE1":"1 47173U 20088BD  22360.81112425 -.00000279  00000-0  16595-6 0  9998","MEAN_ANOMALY":"280.4822","FILE":"3723236","INCLINATION":"53.0526","DECAY_DATE":null,"CLASSIFICATION_TYPE":"U","REV_AT_EPOCH":"11566","OBJECT_NAME":"STARLINK-1890","APOAPSIS":"548.301","ARG_OF_PERICENTER":"79.6348","MEAN_MOTION_DDOT":"0.0000000000000","EPOCH":"2022-12-26T19:28:01.135200","MEAN_MOTION":"15.06408102","NORAD_CAT_ID":"47173","TIME_SYSTEM":"UTC","MEAN_MOTION_DOT":"-0.00000279","CENTER_NAME":"EARTH","SEMIMAJOR_AXIS":"6925.324","MEAN_ELEMENT_THEORY":"SGP4"},{"RA_OF_ASC_NODE":"148.8668","BSTAR":"-0.00033903000000","ELEMENT_SET_NO":"999","SITE":"AFETR","GP_ID":"221523701","COUNTRY_CODE":"US","EPHEMERIS_TYPE":"0","RCS_SIZE":"LARGE","PERIAPSIS":"546.316","LAUNCH_DATE":"2020-11-25","OBJECT_TYPE":"PAYLOAD","PERIOD":"95.591","ECCENTRICITY":"0.00012030","TLE_LINE2":"2 47174  53.0546 148.8668 0001203  74.5986 285.5136 15.06420941115665","REF_FRAME":"TEME","OBJECT_ID":"2020-088BE","FILE":"3723236","TLE_LINE1":"1 47174U 20088BE  22360.82217731 -.00005330  00000-0 -33903-3 0  9999","MEAN_ANOMALY":"285.5136","INCLINATION":"53.0546","DECAY_DATE":null,"CLASSIFICATION_TYPE":"U","REV_AT_EPOCH":"11566","OBJECT_NAME":"STARLINK-1891","APOAPSIS":"547.982","ARG_OF_PERICENTER":"74.5986","MEAN_MOTION_DDOT":"0.0000000000000","EPOCH":"2022-12-26T19:43:56.119584","MEAN_MOTION":"15.06420941","NORAD_CAT_ID":"47174","TIME_SYSTEM":"UTC","MEAN_MOTION_DOT":"-0.00005330","CENTER_NAME":"EARTH","SEMIMAJOR_AXIS":"6925.284","MEAN_ELEMENT_THEORY":"SGP4"},{"OBJECT_TYPE":"PAYLOAD","PERIOD":"95.592","REF_FRAME":"TEME","OBJECT_ID":"2020-088BF","ECCENTRICITY":"0.00017460","TLE_LINE2":"2 47175  53.0538 129.1826 0001746  53.8571 306.2579 15.06403548115933","MEAN_ANOMALY":"306.2579","TLE_LINE1":"1 47175U 20088BF  22360.75398811  .00000041  00000-0  21676-4 0  9998","FILE":"3723236","INCLINATION":"53.0538","DECAY_DATE":null,"RA_OF_ASC_NODE":"129.1826","BSTAR":"0.00002167600000","ELEMENT_SET_NO":"999","SITE":"AFETR","GP_ID":"221522449","COUNTRY_CODE":"US","LAUNCH_DATE":"2020-11-25","PERIAPSIS":"545.994","RCS_SIZE":"LARGE","EPHEMERIS_TYPE":"0","NORAD_CAT_ID":"47175","MEAN_MOTION":"15.06403548","TIME_SYSTEM":"UTC","MEAN_MOTION_DOT":"0.00000041","CENTER_NAME":"EARTH","MEAN_ELEMENT_THEORY":"SGP4","SEMIMAJOR_AXIS":"6925.338","REV_AT_EPOCH":"11593","CLASSIFICATION_TYPE":"U","OBJECT_NAME":"STARLINK-1895","APOAPSIS":"548.412","MEAN_MOTION_DDOT":"0.0000000000000","ARG_OF_PERICENTER":"53.8571","EPOCH":"2022-12-26T18:05:44.572704"},{"COUNTRY_CODE":"US","GP_ID":"221522699","EPHEMERIS_TYPE":"0","RCS_SIZE":"LARGE","LAUNCH_DATE":"2020-11-25","PERIAPSIS":"545.906","ELEMENT_SET_NO":"999","BSTAR":"0.00002306400000","RA_OF_ASC_NODE":"138.9572","SITE":"AFETR","MEAN_ANOMALY":"310.4377","TLE_LINE1":"1 47177U 20088BH  22360.80466709  .00000062  00000-0  23064-4 0  9994","FILE":"3723236","ECCENTRICITY":"0.00018760","TLE_LINE2":"2 47177  53.0538 138.9572 0001876  49.6775 310.4377 15.06402726115800","REF_FRAME":"TEME","OBJECT_ID":"2020-088BH","DECAY_DATE":null,"INCLINATION":"53.0538","OBJECT_TYPE":"PAYLOAD","PERIOD":"95.592","ARG_OF_PERICENTER":"49.6775","MEAN_MOTION_DDOT":"0.0000000000000","APOAPSIS":"548.504","EPOCH":"2022-12-26T19:18:43.236576","CLASSIFICATION_TYPE":"U","REV_AT_EPOCH":"11580","OBJECT_NAME":"STARLINK-1907","MEAN_ELEMENT_THEORY":"SGP4","SEMIMAJOR_AXIS":"6925.340","MEAN_MOTION":"15.06402726","NORAD_CAT_ID":"47177","CENTER_NAME":"EARTH","MEAN_MOTION_DOT":"0.00000062","TIME_SYSTEM":"UTC"},{"GP_ID":"221523451","COUNTRY_CODE":"US","EPHEMERIS_TYPE":"0","RCS_SIZE":"LARGE","LAUNCH_DATE":"2020-11-25","PERIAPSIS":"546.070","RA_OF_ASC_NODE":"149.3424","BSTAR":"-0.00019883000000","ELEMENT_SET_NO":"999","SITE":"AFETR","TLE_LINE2":"2 47178  53.0528 149.3424 0001749  62.4355 297.6811 15.06377908115642","ECCENTRICITY":"0.00017490","REF_FRAME":"TEME","OBJECT_ID":"2020-088BJ","TLE_LINE1":"1 47178U 20088BJ  22360.71899281 -.00003240  00000-0 -19883-3 0  9996","FILE":"3723236","MEAN_ANOMALY":"297.6811","INCLINATION":"53.0528","DECAY_DATE":null,"OBJECT_TYPE":"PAYLOAD","PERIOD":"95.594","APOAPSIS":"548.493","ARG_OF_PERICENTER":"62.4355","MEAN_MOTION_DDOT":"0.0000000000000","EPOCH":"2022-12-26T17:15:20.978784","CLASSIFICATION_TYPE":"U","REV_AT_EPOCH":"11564","OBJECT_NAME":"STARLINK-1912","SEMIMAJOR_AXIS":"6925.416","MEAN_ELEMENT_THEORY":"SGP4","MEAN_MOTION":"15.06377908","NORAD_CAT_ID":"47178","TIME_SYSTEM":"UTC","MEAN_MOTION_DOT":"-0.00003240","CENTER_NAME":"EARTH"}];
